OBJECT_NAME,OBJECT_ID,EPOCH,MEAN_MOTION,ECCENTRICITY,INCLINATION,RA_OF_ASC_NODE,ARG_OF_PERICENTER,MEAN_ANOMALY,EPHEMERIS_TYPE,CLASSIFICATION_TYPE,NORAD_CAT_ID,ELEMENT_SET_NO,REV_AT_EPOCH,BSTAR,MEAN_MOTION_DOT,MEAN_MOTION_DDOT
STARLINK-37563,2026-127Q,2026-07-23T08:47:05.195040,15.49357034,.0000239,53.1595,83.5787,303.1518,56.9468,0,U,69457,999,709,.10347613E-2,.57625E-3,0
STARLINK-37565,2026-127R,2026-07-23T00:00:02.000160,15.49263594,.0001087,53.1601,84.9919,80.8762,203.5235,0,U,69458,999,603,.10014513E-2,.55556E-3,0
STARLINK-37498,2026-127S,2026-07-23T14:00:01.000224,15.49257396,.00011573,53.1600,82.0624,107.5826,262.0099,0,U,69459,999,601,.16257024E-2,.90859E-3,0
STARLINK-37384,2026-127T,2026-07-23T14:00:01.000224,15.50014975,.00013256,53.1610,81.5826,112.6857,133.3008,0,U,69460,999,595,-.25593301E-1,-.131754E-1,0
STARLINK-37707,2026-127U,2026-07-23T02:10:27.077088,15.49342304,.00007495,53.1592,84.6997,343.2004,16.8980,0,U,69461,999,705,.11938025E-2,.66592E-3,0
STARLINK-37525,2026-127V,2026-07-23T14:00:01.000224,15.49254143,.0001009,53.1596,81.9451,102.6502,323.0603,0,U,69462,999,595,.16307937E-2,.91138E-3,0
STARLINK-37526,2026-127W,2026-07-23T01:56:46.793760,15.49332512,.00013564,53.1593,84.6355,74.7027,285.4132,0,U,69463,999,705,.10582682E-2,.58902E-3,0
STARLINK-37574,2026-127X,2026-07-22T23:14:42.124704,15.49364391,.00015011,53.1584,85.3570,74.3314,285.7860,0,U,69464,999,703,.1356151E-2,.7586E-3,0
STARLINK-37535,2026-127Y,2026-07-23T14:00:01.000224,15.49254638,.00010899,53.1600,82.0608,99.8525,267.4070,0,U,69465,999,601,.16678969E-2,.93248E-3,0
STARLINK-37583,2026-127Z,2026-07-23T14:00:01.000224,15.49253176,.00007807,53.1600,81.6000,69.0655,163.6185,0,U,69466,999,592,.15992875E-2,.89344E-3,0
STARLINK-37546,2026-127AA,2026-07-23T14:00:01.000224,15.49257916,.00007274,53.1599,82.0739,100.5269,258.8695,0,U,69467,999,590,.16350783E-2,.91393E-3,0
STARLINK-37532,2026-127AB,2026-07-23T04:39:03.601152,15.49342184,.0001228,53.1602,83.9016,97.6815,262.4333,0,U,69468,999,707,.77668762E-3,.43037E-3,0
STARLINK-37708,2026-127AC,2026-07-22T22:50:03.817248,15.49319242,.00009658,53.1599,85.2413,87.6581,272.4539,0,U,69469,999,703,.10279727E-2,.57163E-3,0
STARLINK-37686,2026-127AD,2026-07-22T22:49:31.982304,15.49318865,.00013418,53.1594,85.2376,91.5010,268.6152,0,U,69470,999,703,.10911612E-2,.60732E-3,0
STARLINK-37451,2026-127AE,2026-07-23T05:00:04.915008,15.49324092,.00010708,53.1595,83.2613,85.3915,274.7217,0,U,69471,999,708,.86742284E-3,.48117E-3,0
DTC TEST OBJECT A,2026-128A,2026-07-13T09:27:12.812256,15.53518270,.00116266,54.9999,184.1420,6.4285,353.6897,0,U,69472,999,530,.98124681E-4,.5883E-4,0
DTC TEST OBJECT B,2026-128B,2026-07-23T12:24:58.638240,15.55455992,.0013857,54.9916,137.0490,46.8898,313.3294,0,U,69473,999,687,.41006397E-3,.28145E-3,0
TJS-25,2026-129A,2026-07-22T18:44:08.329344,1.00268708,.00028227,5.9433,330.3713,274.1214,97.2077,0,U,69474,999,42,0,-.361E-5,0
STARLINK-37816,2026-131A,2026-07-23T13:24:00.869760,15.49202110,.00015422,97.2845,226.2471,90.0375,270.1053,0,U,69478,999,786,.66589744E-3,.3631E-3,0
STARLINK-37878,2026-131B,2026-07-23T14:00:01.000224,15.33453108,.0000497,97.2859,226.2302,99.4577,297.1447,0,U,69479,999,601,.33166539E-3,.1065E-3,0
STARLINK-37817,2026-131C,2026-07-23T14:00:01.000224,15.33420091,.0002028,97.2855,226.2363,111.6672,299.9170,0,U,69480,999,602,.35720531E-3,.11466E-3,0
STARLINK-37727,2026-131D,2026-07-23T14:00:01.000224,15.36970286,.00006452,97.2847,226.2332,72.7432,335.8982,0,U,69481,999,592,.24623568E-3,.8824E-4,0
STARLINK-37814,2026-131E,2026-07-23T01:07:08.974560,15.37361289,.00015962,97.2832,225.7194,188.8090,171.3127,0,U,69482,999,778,.59924467E-2,.225662E-2,0
STARLINK-37869,2026-131F,2026-07-23T14:00:01.000224,15.37415020,.00011815,97.2852,226.2510,86.4364,1.4339,0,U,69483,999,602,-.28686906E-1,-.960455E-2,0
STARLINK-37873,2026-131G,2026-07-23T14:00:01.000224,15.36979739,.00014115,97.2853,226.2529,99.5727,352.2774,0,U,69484,999,592,.43566957E-3,.15692E-3,0
STARLINK-37892,2026-131H,2026-07-23T14:00:01.000224,15.35617767,.00014545,97.2849,226.2696,99.5068,25.9231,0,U,69485,999,592,-.95505116E-1,-.2919917E-1,0
STARLINK-37893,2026-131J,2026-07-23T14:00:01.000224,15.37024722,.00023651,97.2851,226.2785,96.8692,56.3013,0,U,69486,999,602,-.99603174E-1,-.315421E-1,0
STARLINK-37842,2026-131K,2026-07-23T14:00:01.000224,15.36994883,.00018751,97.2855,226.2757,88.8115,55.7437,0,U,69487,999,591,.41713102E-3,.15027E-3,0
STARLINK-37449,2026-131L,2026-07-23T14:00:01.000224,15.37592748,.00022499,97.2852,226.2927,100.2649,80.6190,0,U,69488,999,597,-.76960478E-1,-.2505901E-1,0
STARLINK-37831,2026-131M,2026-07-23T14:00:01.000224,15.41806369,.00019664,97.2849,226.2817,75.6090,86.5481,0,U,69489,999,603,-.78585542E-1,-.2941923E-1,0
