STARLINK-37563          
1 69457U 26127Q   26204.36603235  .00057625  00000+0  10348-2 0  9993
2 69457  53.1595  83.5787 0000239 303.1518  56.9468 15.49357034  7099
STARLINK-37565          
1 69458U 26127R   26204.00002315  .00055556  00000+0  10015-2 0  9999
2 69458  53.1601  84.9919 0001087  80.8762 203.5235 15.49263594  6034
STARLINK-37498          
1 69459U 26127S   26204.58334491  .00090859  00000+0  16257-2 0  9995
2 69459  53.1600  82.0624 0001157 107.5826 262.0099 15.49257396  6011
STARLINK-37384          
1 69460U 26127T   26204.58334491 -.01317540  00000+0 -25593-1 0  9991
2 69460  53.1610  81.5826 0001325 112.6857 133.3008 15.50014975  5958
STARLINK-37707          
1 69461U 26127U   26204.09059117  .00066592  00000+0  11938-2 0  9991
2 69461  53.1592  84.6997 0000749 343.2004  16.8980 15.49342304  7051
STARLINK-37525          
1 69462U 26127V   26204.58334491  .00091138  00000+0  16308-2 0  9997
2 69462  53.1596  81.9451 0001009 102.6502 323.0603 15.49254143  5956
STARLINK-37526          
1 69463U 26127W   26204.08109715  .00058902  00000+0  10583-2 0  9993
2 69463  53.1593  84.6355 0001356  74.7027 285.4132 15.49332512  7051
STARLINK-37574          
1 69464U 26127X   26203.96854311  .00075860  00000+0  13562-2 0  9991
2 69464  53.1584  85.3570 0001501  74.3314 285.7860 15.49364391  7035
STARLINK-37535          
1 69465U 26127Y   26204.58334491  .00093248  00000+0  16679-2 0  9995
2 69465  53.1600  82.0608 0001089  99.8525 267.4070 15.49254638  6017
STARLINK-37583          
1 69466U 26127Z   26204.58334491  .00089344  00000+0  15993-2 0  9996
2 69466  53.1600  81.6000 0000780  69.0655 163.6185 15.49253176  5928
STARLINK-37546          
1 69467U 26127AA  26204.58334491  .00091393  00000+0  16351-2 0  9993
2 69467  53.1599  82.0739 0000727 100.5269 258.8695 15.49257916  5900
STARLINK-37532          
1 69468U 26127AB  26204.19379168  .00043037  00000+0  77669-3 0  9993
2 69468  53.1602  83.9016 0001228  97.6815 262.4333 15.49342184  7076
STARLINK-37708          
1 69469U 26127AC  26203.95143307  .00057163  00000+0  10280-2 0  9991
2 69469  53.1599  85.2413 0000965  87.6581 272.4539 15.49319242  7038
STARLINK-37686          
1 69470U 26127AD  26203.95106461  .00060732  00000+0  10912-2 0  9991
2 69470  53.1594  85.2376 0001341  91.5010 268.6152 15.49318865  7031
STARLINK-37451          
1 69471U 26127AE  26204.20839022  .00048117  00000+0  86742-3 0  9995
2 69471  53.1595  83.2613 0001070  85.3915 274.7217 15.49324092  7083
DTC TEST OBJECT A       
1 69472U 26128A   26194.39389829  .00005883  00000+0  98125-4 0  9992
2 69472  54.9999 184.1420 0011626   6.4285 353.6897 15.53518270  5302
DTC TEST OBJECT B       
1 69473U 26128B   26204.51734535  .00028145  00000+0  41006-3 0  9998
2 69473  54.9916 137.0490 0013857  46.8898 313.3294 15.55455992  6872
TJS-25                  
1 69474U 26129A   26203.78065196 -.00000361  00000+0  00000+0 0  9994
2 69474   5.9433 330.3713 0002822 274.1214  97.2077  1.00268708   421
STARLINK-37816          
1 69478U 26131A   26204.55834340  .00036310  00000+0  66590-3 0  9994
2 69478  97.2845 226.2471 0001542  90.0375 270.1053 15.49202110  7865
STARLINK-37878          
1 69479U 26131B   26204.58334491  .00010650  00000+0  33167-3 0  9993
2 69479  97.2859 226.2302 0000497  99.4577 297.1447 15.33453108  6019
STARLINK-37817          
1 69480U 26131C   26204.58334491  .00011466  00000+0  35721-3 0  9999
2 69480  97.2855 226.2363 0002028 111.6672 299.9170 15.33420091  6028
STARLINK-37727          
1 69481U 26131D   26204.58334491  .00008824  00000+0  24624-3 0  9994
2 69481  97.2847 226.2332 0000645  72.7432 335.8982 15.36970286  5928
STARLINK-37814          
1 69482U 26131E   26204.04663165  .00225662  00000+0  59924-2 0  9990
2 69482  97.2832 225.7194 0001596 188.8090 171.3127 15.37361289  7786
STARLINK-37869          
1 69483U 26131F   26204.58334491 -.00960455  00000+0 -28687-1 0  9996
2 69483  97.2852 226.2510 0001181  86.4364   1.4339 15.37415020  6021
STARLINK-37873          
1 69484U 26131G   26204.58334491  .00015692  00000+0  43567-3 0  9995
2 69484  97.2853 226.2529 0001411  99.5727 352.2774 15.36979739  5926
STARLINK-37892          
1 69485U 26131H   26204.58334491 -.02919917  00000+0 -95505-1 0  9990
2 69485  97.2849 226.2696 0001454  99.5068  25.9231 15.35617767  5923
STARLINK-37893          
1 69486U 26131J   26204.58334491 -.03154210  00000+0 -99603-1 0  9992
2 69486  97.2851 226.2785 0002365  96.8692  56.3013 15.37024722  6024
STARLINK-37842          
1 69487U 26131K   26204.58334491  .00015027  00000+0  41713-3 0  9991
2 69487  97.2855 226.2757 0001875  88.8115  55.7437 15.36994883  5917
STARLINK-37449          
1 69488U 26131L   26204.58334491 -.02505901  00000+0 -76960-1 0  9991
2 69488  97.2852 226.2927 0002249 100.2649  80.6190 15.37592748  5975
STARLINK-37831          
1 69489U 26131M   26204.58334491 -.02941923  00000+0 -78586-1 0  9996
2 69489  97.2849 226.2817 0001966  75.6090  86.5481 15.41806369  6038
